#cP2018  1  1  0  0  0.00000000     289 d+D   IGS14 FIT AIUB
## 1982  86400.00000000   300.00000000 58119 0.0000000000000
+   83   G01G02G03G04G05G06G07G08G09G10G11G12G13G14G15G16G17
+        G18G19G20G21G22G23G24G25G26G27G28G29G30G31G32R01R02
+        R03R04R05R06R07R08R09R10R11R13R14R15R16R17R18R19R20
+        R21R22R23R24R26E01E02E03E04E05E07E08E09E11E12E14E18
+        E19E24E26E30C06C07C08C09C10C11C12C13C14J01J02  0  0
++         5  5  5  5  5  5  5  5  5  5  5  5  5  5  5  5  5
++         5  5  5  5  5  5  5  5  5  5  5  5  5  5  5  5  5
++         5  5  5  5  5  5  5  5  5  5  5  5  5  5  5  5  5
++         5  5  5  5  5  5  5  5  5  5  5  5  5  5  5  5  5
++         5  5  5  5  5  6  5  5  5  5  5  5  5  9 10  0  0
%c M  cc GPS ccc cccc cccc cccc cccc ccccc ccccc ccccc ccccc
%c cc cc ccc ccc cccc cccc cccc cccc ccccc ccccc ccccc ccccc
%f  1.2500000  1.025000000  0.00000000000  0.000000000000000
%f  0.0000000  0.000000000  0.00000000000  0.000000000000000
%i    0    0    0    0      0      0      0      0         0
%i    0    0    0    0      0      0      0      0         0
/* CODE MGEX orbits and clocks                              
/* of DOY 18001                                             
/*                                                          
/* PCV:IGS14      OL/AL:FES2004  NONE     YN ORB:CoN CLK:CoN
*  2018  1  1 16  0  0.00000000
PG01 -13733.913217  21370.966843   7098.116649    -20.899600
PG02  15860.539870   -675.467164 -20714.259293    239.847438
PG03 -17758.012200  13119.239451 -14748.657819    -17.361574
PG04 -18346.528371  -9327.279527 -17176.885441     29.419109
PG05  26378.282591  -1938.805548  -3539.533997    -18.133168
PG06  10902.732185  11856.858952 -21086.387497    414.321628
PG07  -4208.376806  24797.702656   7995.983532    257.704150
PG08 -14830.927440   5211.369083  21484.034749    -86.176750
PG09   4084.171364  21665.882131 -14841.430553    489.075088
PG10 -13474.053210 -11834.244330  19664.791219    139.290395
PG11 -10216.630236  19840.689201  13936.899220   -732.664670
PG12  20386.951732 -10629.698037 -13289.175295    357.600742
PG13  17890.371848   3883.660657  19119.165456    -95.113440
PG14 -18388.706841 -17598.903822  -7606.793132    -91.643916
PG15  14226.153773  -7703.870035  20899.317025   -357.404709
PG16 -26649.789998      3.813109  -2849.036372     34.697730
PG17  14820.200035  22112.639466   1371.703894   -134.033097
PG18  -1469.501802 -16242.125949  21554.429365    633.588139
PG19  17813.293995  18203.924738  -7416.713193   -466.394003
PG20  19184.959811 -14028.459882  11667.753186    497.153438
PG21    696.695405 -24832.624610  10120.296186   -446.408855
PG22 -22903.522866  10781.100669  -7837.430120   -242.226898
PG23  -6864.498571  15027.855431 -20450.340575   -219.064297
PG24  14501.166993 -19660.226258   9968.952061    -44.246429
PG25   7808.501249 -15164.293723 -20455.948963   -515.312410
PG26 -22636.635134  -5403.292422 -12903.426788   -303.386096
PG27 -19933.521592  -7588.672955  15920.408540    359.995392
PG28   8860.853330  13702.208681  21586.565375    676.062431
PG29    724.887430 -19644.732999 -17878.203735    517.181906
PG30   2534.280834  21357.120749  15493.322837    116.140514
PG31 -11433.858159 -10775.366934 -21301.277733    151.555884
PG32 -16739.385764 -20668.707075     23.126643   -531.955407
PR01 -23119.670443  -9233.622131   5516.241391     20.113614
PR02 -21599.234132    355.575283 -13573.808849    288.029236
PR03  -6838.523630   9309.483143 -22715.209009    120.212096
PR04  12343.010240  12717.021266 -18331.649579    244.348245
PR05  23716.512337   8558.352614  -3909.159940   -222.404101
PR06  21094.945633  -1307.367033  14242.346639    124.349027
PR07   6367.779858  -9495.001422  22825.246462    -26.321569
PR08 -11698.444353 -12776.065938  18767.051982    -27.009148
PR09  20169.657536 -12444.969597   9529.641704     48.100720
PR10  14773.682561 -19047.312948  -8475.683701     15.009934
PR11    468.695093 -14212.170624 -21169.191547    -18.318461
PR13 -19826.813041  13477.297689  -8726.388118     -6.067074
PR14 -14823.354974  19103.401716   8127.588114     23.522836
PR15  -3692.442800  15809.126695  19722.545667     -4.666499
PR16  13372.987017   1346.528806  21636.679488     82.432842
PR17  -2519.674745  20290.696262  15289.438330     97.635072
PR18   6157.977198  24711.054106   -700.139515    179.488935
PR19  11182.216388  15522.246549 -16869.186032    -39.608818
PR20   9852.931120  -4091.900123 -23160.430678   -321.768023
PR21   2336.847795 -20370.283562 -15150.977056     17.090743
PR22  -6898.132118 -24498.245819   2535.097401     -6.633576
PR23 -11763.956410 -12384.110376  18942.876028    127.753983
PR24  -9668.334754   4827.524935  23085.875515   -160.519290
PR26   9828.274526  -4254.368412 -23134.422718     -9.346424
PE01  14973.965388 -21384.701661 -13947.007256   -243.109953
PE02 -14955.427093  21393.118736  13972.869888      0.489011
PE03  -4896.252460  16618.274789 -24005.092489     17.525538
PE04 -15773.105859 -19746.704775  15410.039456     52.482616
PE05 -22761.554266   3738.235023 -18556.034825    350.097589
PE07  27266.708489  11304.766097   2254.585669    109.467304
PE08  15975.963040  19509.895921 -15510.903612   6669.655800
PE09 -27353.773273 -11080.967151  -2193.036816   6915.651740
PE11 -16056.545712 -11045.497372  22285.629811   1854.672300
PE12  -8119.134269 -27181.806747   8481.831625   3185.665980
PE14  17834.580910  19406.436692  -4268.908061   6655.012130
PE18 -10373.781062 -27440.819083  -8094.248331   6536.343040
PE19   6840.201838 -15604.561620  24200.733378     17.900009
PE24 -21447.398599  -1382.709174 -20367.266743   6939.533980
PE26  14755.150182 -11351.740403 -23003.497807   6435.155600
PE30   4637.108656  16114.415846  24390.909378   6195.608370
PC06 -11865.385773  21580.188688 -33997.937126   -667.289666
PC07 -24759.005344  29941.728781  15983.463163   -259.253838
PC08 -11019.563400  36665.018830  17997.287101     87.407001
PC09   3822.201233  28507.687101 -30592.316168   -546.325243
PC10 -10330.357848  30755.149544  26860.918864     86.559281
PC11   1754.127529  24906.276859  12608.745196   -336.398997
PC12 -11991.025447  10610.514577  22925.888328    368.328104
PC13  -2137.462745  42039.476284   4143.347744   -120.046925
PC14  -4909.696570  15538.316483 -22612.781027    117.153360
PJ01 -34173.695725  17536.404406 -12692.433382   -177.569184
PJ02 -25503.685546  33156.905903  -1359.728321      5.195194
EOF
